STARLINK-2103_new
1 17383C 21005AL  21326.13508402  .00000706  00000-0  47329-4 0  3266
2 17383  53.0526 223.1374 0001909  58.4410  94.4886 15.06400594    15
STARLINK-2103_old
1 27383C 21005AL  21325.13940449 -.00015537  00000-0 -10408-2 0  3251
2 27383  53.0531 227.6072 0001889  57.9030  92.4051 15.06419612    17
